*******************************************************************************
Ephemeris / WWW_USER Mon Mar 24 09:10:22 2025 Pasadena, USA      / Horizons    
*******************************************************************************
Target body name: 584778 (2017 RG16)              {source: JPL#32}
Center body name: Earth (399)                     {source: DE441}
Center-site name: Mauna Kea
*******************************************************************************
Start time      : A.D. 2018-Nov-21 03:51:00.0000 UT      
Stop  time      : A.D. 2018-Nov-21 16:24:00.0000 UT      
Step-size       : 1 minutes
*******************************************************************************
Target pole/equ : undefined
Target radii    : undefined                                                    
Center geodetic : 204.5278, 19.8260847, 4.21024   {E-lon(deg),Lat(deg),Alt(km)}
Center cylindric: 204.5278, 6006.35451, 2151.0229 {E-lon(deg),Dxy(km),Dz(km)}
Center pole/equ : ITRF93                          {East-longitude positive}
Center radii    : 6378.137, 6378.137, 6356.752 km {Equator_a, b, pole_c}       
Target primary  : Sun
Vis. interferer : MOON (R_eq= 1737.400) km        {source: DE441}
Rel. light bend : Sun                             {source: DE441}
Rel. lght bnd GM: 1.3271E+11 km^3/s^2                                          
Small-body perts: Yes                             {source: SB441-N16}
Atmos refraction: NO (AIRLESS)
RA format       : HMS
Time format     : CAL 
Calendar mode   : Mixed Julian/Gregorian
RTS-only print  : NO       
EOP file        : eop.250321.p250617                                           
EOP coverage    : DATA-BASED 1962-JAN-20 TO 2025-MAR-21. PREDICTS-> 2025-JUN-16
Units conversion: 1 au= 149597870.700 km, c= 299792.458 km/s, 1 day= 86400.0 s 
Table cut-offs 1: Elevation (-90.0deg=NO ),Airmass (>38.000=NO), Daylight (YES)
Table cut-offs 2: Solar elongation (  0.0,180.0=NO ),Local Hour Angle( 0.0=NO )
Table cut-offs 3: RA/DEC angular rate (     0.0=NO )                           
*******************************************************************************
Initial IAU76/J2000 heliocentric ecliptic osculating elements (au, days, deg.):
  EPOCH=  2458734.5 ! 2019-Sep-08.00 (TDB)         Residual RMS= .14786        
   EC= .9085798704456644   QR= 7.106644157383132   TP= 2457926.6828443832      
   OM= .547367620295521    W=  323.0265763955561   IN= 74.86683883750447       
  Equivalent ICRF heliocentric cartesian coordinates (au, au/d):
   X= 8.360714527577798E+00  Y=-2.241293784086399E-01  Z= 2.069107023705337E+00
  VX= 1.416407206608659E-03 VY=-1.132497676729848E-03 VZ= 7.848232694960624E-03
Asteroid physical parameters (km, seconds, rotational period in hours):        
   GM= n.a.                RAD= n.a.               ROTPER= n.a.                
   H= 11.32                G= .150                 B-V= n.a.                   
                           ALBEDO= n.a.            STYP= n.a.                  
*******************************************************************************
 Date__(UT)__HR:MN     R.A._________(ICRF)_________DEC
******************************************************
$$SOE
 2018-Nov-21 16:09 N   23 38 55.527842 -04 30 00.51184
 2018-Nov-21 16:10 N   23 38 55.518273 -04 30 00.39563
 2018-Nov-21 16:11 C   23 38 55.508704 -04 30 00.27941
 2018-Nov-21 16:12 C   23 38 55.499137 -04 30 00.16320
 2018-Nov-21 16:13 C   23 38 55.489571 -04 30 00.04699
 2018-Nov-21 16:14 C   23 38 55.480005 -04 29 59.93078
 2018-Nov-21 16:15 C   23 38 55.470441 -04 29 59.81457
 2018-Nov-21 16:16 C   23 38 55.460877 -04 29 59.69836
 2018-Nov-21 16:17 C   23 38 55.451314 -04 29 59.58215
 2018-Nov-21 16:18 C   23 38 55.441753 -04 29 59.46594
 2018-Nov-21 16:19 C   23 38 55.432192 -04 29 59.34973
 2018-Nov-21 16:20 C   23 38 55.422631 -04 29 59.23352
 2018-Nov-21 16:21 C   23 38 55.413072 -04 29 59.11731
 2018-Nov-21 16:22 C   23 38 55.403514 -04 29 59.00111
 2018-Nov-21 16:23 C   23 38 55.393956 -04 29 58.88490
 2018-Nov-21 16:24 C   23 38 55.384400 -04 29 58.76869
